[{"OBJECT_NAME":"HULIANWANG DIGUI-05","OBJECT_ID":"2024-240E","EPOCH":"2026-03-09T22:21:54.406080","MEAN_MOTION":13.2442144,"ECCENTRICITY":0.00021027,"INCLINATION":86.508,"RA_OF_ASC_NODE":16.8728,"ARG_OF_PERICENTER":82.1193,"MEAN_ANOMALY":278.0179,"EPHEMERIS_TYPE":0,"CLASSIFICATION_TYPE":"U","NORAD_CAT_ID":62327,"ELEMENT_SET_NO":999,"REV_AT_EPOCH":5950,"BSTAR":0.00010669148,"MEAN_MOTION_DOT":6.0e-7,"MEAN_MOTION_DDOT":0},{"OBJECT_NAME":"FENGYUN 1C DEB","OBJECT_ID":"1999-025CFB","EPOCH":"2026-03-05T10:21:48.054816","MEAN_MOTION":13.93752164,"ECCENTRICITY":0.0356044,"INCLINATION":98.9673,"RA_OF_ASC_NODE":139.9555,"ARG_OF_PERICENTER":107.1988,"MEAN_ANOMALY":256.8469,"EPHEMERIS_TYPE":0,"CLASSIFICATION_TYPE":"U","NORAD_CAT_ID":31752,"ELEMENT_SET_NO":999,"REV_AT_EPOCH":94742,"BSTAR":0.0022485,"MEAN_MOTION_DOT":4.97e-5,"MEAN_MOTION_DDOT":0}]
